OBJECT_NAME,OBJECT_ID,EPOCH,MEAN_MOTION,ECCENTRICITY,INCLINATION,RA_OF_ASC_NODE,ARG_OF_PERICENTER,MEAN_ANOMALY,EPHEMERIS_TYPE,CLASSIFICATION_TYPE,NORAD_CAT_ID,ELEMENT_SET_NO,REV_AT_EPOCH,BSTAR,MEAN_MOTION_DOT,MEAN_MOTION_DDOT
STARLINK-32434,2024-207B,2026-06-26T23:37:00.528960,15.27566279,.0001492,43.0009,24.8192,271.8281,88.2400,0,U,61913,999,9143,.45858274E-3,.12373E-3,0
STARLINK-32460,2024-207C,2026-06-26T22:17:27.241728,15.27605919,.0001389,42.9988,24.4008,281.2528,78.8167,0,U,61914,999,9143,.98194E-3,.26879E-3,0
STARLINK-32559,2024-207D,2026-06-27T06:00:02.000160,15.35801379,.00019049,43.0004,22.4802,289.5016,83.0525,0,U,61915,999,586,.19838186E-1,.759661E-2,0
STARLINK-32541,2024-207E,2026-06-27T01:06:46.041408,15.27567891,.00013541,43.0038,27.8857,276.8160,83.2538,0,U,61916,999,9140,.10493773E-2,.28716E-3,0
STARLINK-32544,2024-207F,2026-06-26T21:14:44.269440,15.27564155,.00013464,43.0034,24.9327,260.1123,99.9577,0,U,61917,999,9142,.96731346E-3,.26439E-3,0
STARLINK-32555,2024-207G,2026-06-26T23:49:15.615840,15.27569466,.00016479,43.0023,28.3400,284.2340,75.8328,0,U,61918,999,9139,.63244047E-3,.17176E-3,0
STARLINK-32547,2024-207H,2026-06-27T06:10:04.600416,15.27572513,.00011047,42.9990,22.5639,269.4343,90.6382,0,U,61919,999,9147,.84161775E-3,.22964E-3,0
STARLINK-32616,2024-207J,2026-06-27T07:00:02.182752,15.27574610,.00016258,43.0035,22.8240,271.6766,88.3900,0,U,61920,999,9148,.85657891E-3,.2338E-3,0
STARLINK-32605,2024-207K,2026-06-27T06:34:07.750848,15.27577045,.0001295,43.0005,22.6863,275.9617,84.1087,0,U,61921,999,9148,.79130466E-3,.21575E-3,0
STARLINK-32579,2024-207L,2026-06-26T23:27:03.443616,15.27561443,.00012507,43.0039,28.2242,266.4398,93.6311,0,U,61922,999,9139,.81276416E-3,.22158E-3,0
STARLINK-32537,2024-207M,2026-06-26T20:44:40.486272,15.27584919,.0001493,43.0003,29.0937,271.1729,88.8951,0,U,61923,999,9137,.96606885E-3,.26421E-3,0
STARLINK-32564,2024-207N,2026-06-26T23:43:44.349600,15.27568380,.00008673,43.0004,28.3090,279.8768,80.1986,0,U,61924,999,9139,.14765203E-2,.40578E-3,0
STARLINK-32536,2024-207P,2026-06-26T20:50:11.109696,15.27581919,.0000709,42.9986,29.1221,243.7697,116.3081,0,U,61925,999,9137,-.25938541E-4,-.975E-5,0
STARLINK-32624,2024-207Q,2026-06-26T23:44:11.974272,15.27566126,.00010461,42.9984,23.9910,254.4462,105.6274,0,U,61926,999,9144,.54390805E-3,.14729E-3,0
STARLINK-32622,2024-207R,2026-06-27T06:11:54.760416,15.27553609,.00014344,42.9990,22.5721,269.3635,90.7052,0,U,61927,999,9148,.99038307E-3,.27069E-3,0
STARLINK-32620,2024-207S,2026-06-27T06:54:28.822176,15.27581104,.00015393,43.0032,22.7924,272.2547,87.8129,0,U,61928,999,9148,.70663399E-3,.19234E-3,0
STARLINK-32609,2024-207T,2026-06-27T06:43:22.805184,15.27583481,.0001695,43.0029,22.7327,266.4495,93.6163,0,U,61929,999,9148,.10077583E-2,.27576E-3,0
STARLINK-32567,2024-207U,2026-06-26T20:05:19.709952,15.27566100,.0001513,43.0026,21.9533,287.5378,72.5308,0,U,61930,999,9204,.68109158E-3,.18519E-3,0
STARLINK-32420,2024-207V,2026-06-27T06:23:01.619808,15.27573310,.00010544,42.9996,22.6298,269.1535,90.9196,0,U,61931,999,9148,.66115416E-3,.17972E-3,0
STARLINK-32354,2024-207W,2026-06-26T23:38:09.414816,15.27569702,.00017082,43.0037,28.2794,285.8307,74.2356,0,U,61932,999,9188,.95433977E-3,.26084E-3,0
STARLINK-32361,2024-207X,2026-06-26T23:40:42.314304,15.27615278,.00014872,42.9998,24.8129,270.1686,89.8995,0,U,61933,999,9143,.74938757E-3,.20439E-3,0
STARLINK-32500,2024-207Z,2026-06-26T23:21:30.353472,15.27566708,.00016344,43.0039,28.1915,266.4138,93.6527,0,U,61935,999,9139,.10934303E-2,.29937E-3,0
HAIYANG 4-01,2024-208A,2026-06-27T07:29:11.499360,14.73308575,.00024,98.0029,185.9303,107.3052,252.8419,0,U,61936,999,8693,.8242783E-4,.483E-5,0
STARLINK-11407 [DTC],2024-209A,2026-06-27T06:45:35.997696,15.69712761,.0001688,53.1560,190.7885,44.1994,315.9158,0,U,61939,999,9395,.98473014E-3,.120472E-2,0
STARLINK-11337 [DTC],2024-209B,2026-06-27T06:38:32.346528,15.69717146,.00023362,53.1560,190.7563,33.8798,326.2369,0,U,61940,999,9393,.14329751E-2,.176822E-2,0
STARLINK-11353 [DTC],2024-209C,2026-06-27T06:31:28.412832,15.69768264,.00009638,53.1562,190.7230,99.1479,260.9648,0,U,61941,999,9389,.11143396E-2,.136993E-2,0
STARLINK-11320 [DTC],2024-209D,2026-06-27T04:52:52.167648,15.69755491,.00009862,53.1558,191.7365,115.0146,245.0974,0,U,61942,999,9387,.16396627E-2,.203382E-2,0
STARLINK-11425 [DTC],2024-209E,2026-06-27T04:45:48.504384,15.69780040,.00016613,53.1556,191.7046,17.1755,342.9318,0,U,61943,999,9387,.10922112E-2,.134285E-2,0
STARLINK-11422 [DTC],2024-209F,2026-06-27T07:42:06.672384,15.69725904,.00013249,53.1567,191.0450,66.9938,293.1220,0,U,61944,999,9389,.12922587E-2,.159109E-2,0
STARLINK-11421 [DTC],2024-209G,2026-06-27T07:35:02.755968,15.69731770,.00013328,53.1570,191.0131,68.9451,291.1709,0,U,61945,999,9389,.14351093E-2,.177195E-2,0
